NORAD_CAT_ID,OBJECT_NAME,OBJECT_TYPE,EPOCH,MEAN_MOTION,ECCENTRICITY,INCLINATION,RA_OF_ASC_NODE,ARG_OF_PERICENTER,MEAN_ANOMALY,BSTAR,MEAN_MOTION_DOT,MEAN_MOTION_DDOT,TLE_LINE0,TLE_LINE1,TLE_LINE2,SEMIMAJOR_AXIS,PERIOD,APOGEE,PERIGEE,DECAYED
49133.0,STARLINK-3077,PAYLOAD,2023-04-13 16:56:45,14.98347625,0.0003034,69.9998,89.5738,265.0395,95.0418,0.00017487,1.995e-05,0.0,0 STARLINK-3077,1 49133U 21082D   23103.70608117  .00001995  00000-0  17487-3 0  9996,2 49133  69.9998  89.5738 0003034 265.0395  95.0418 14.98347625 87058,6950.138,96.106,574.112,569.895,0.0
49133.0,STARLINK-3077,PAYLOAD,2023-04-14 08:58:05,14.98351481,0.0003113,69.9991,87.8912,269.4894,90.5908,0.00024234,2.801e-05,0.0,0 STARLINK-3077,1 49133U 21082D   23104.37367020  .00002801  00000-0  24234-3 0  9990,2 49133  69.9991  87.8912 0003113 269.4894  90.5908 14.98351481 87156,6950.126,96.106,574.155,569.828,0.0
49133.0,STARLINK-3077,PAYLOAD,2023-04-14 23:23:19,14.98331094,0.0003141,69.9994,86.3757,267.5385,92.5414,-5.0526e-05,-6.96e-06,0.0,0 STARLINK-3077,1 49133U 21082D   23104.97452798 -.00000696  00000-0 -50526-4 0  9999,2 49133  69.9994  86.3757 0003141 267.5385  92.5414 14.98331094 87247,6950.19,96.107,574.238,569.871,0.0
49133.0,STARLINK-3077,PAYLOAD,2023-04-15 09:00:07,14.98329608,0.0003073,69.9996,85.3671,262.9557,97.1253,-0.00011259,-1.436e-05,0.0,0 STARLINK-3077,1 49133U 21082D   23105.37509008 -.00001436  00000-0 -11259-3 0  9993,2 49133  69.9996  85.3671 0003073 262.9557  97.1253 14.98329608 87304,6950.194,96.107,574.195,569.923,0.0
49133.0,STARLINK-3077,PAYLOAD,2023-04-15 21:49:12,14.98328763,0.0003106,69.9995,84.0199,267.0999,92.9804,-0.00023912,-2.945e-05,0.0,0 STARLINK-3077,1 49133U 21082D   23105.90917339 -.00002945  00000-0 -23912-3 0  9997,2 49133  69.9995  84.0199 0003106 267.0999  92.9804 14.98328763 87381,6950.197,96.107,574.22,569.903,0.0
49133.0,STARLINK-3077,PAYLOAD,2023-04-16 07:26:00,14.98329493,0.0003029,69.9997,83.0103,266.6816,93.3996,-0.00019445,-2.412e-05,0.0,0 STARLINK-3077,1 49133U 21082D   23106.30973234 -.00002412  00000-0 -19445-3 0  9993,2 49133  69.9997  83.0103 0003029 266.6816  93.3996 14.98329493 87449,6950.194,96.107,574.165,569.954,0.0
49133.0,STARLINK-3077,PAYLOAD,2023-04-16 21:51:13,14.98318551,0.0003009,70.0,81.4956,263.4853,96.5964,9.9338e-05,1.092e-05,0.0,0 STARLINK-3077,1 49133U 21082D   23106.91057381  .00001092  00000-0  99338-4 0  9997,2 49133  70.0000  81.4956 0003009 263.4853  96.5964 14.98318551 87532,6950.228,96.108,574.185,570.002,0.0
49133.0,STARLINK-3077,PAYLOAD,2023-04-17 07:28:01,14.98322376,0.0002991,70.0,80.4856,263.5854,96.4964,0.0001355,1.524e-05,0.0,0 STARLINK-3077,1 49133U 21082D   23107.31113392  .00001524  00000-0  13550-3 0  9998,2 49133  70.0000  80.4856 0002991 263.5854  96.4964 14.98322376 87596,6950.216,96.107,574.16,570.003,0.0
49133.0,STARLINK-3077,PAYLOAD,2023-04-17 15:28:42,14.98323236,0.0003006,70.0001,79.644,264.8271,95.2545,0.00013395,1.505e-05,0.0,0 STARLINK-3077,1 49133U 21082D   23107.64493537  .00001505  00000-0  13395-3 0  9992,2 49133  70.0001  79.6440 0003006 264.8271  95.2545 14.98323236 87645,6950.214,96.107,574.168,569.99,0.0
49133.0,STARLINK-3077,PAYLOAD,2023-04-18 07:30:03,14.9832571,0.0003007,70.0001,77.9612,265.8434,94.2382,0.00015458,1.752e-05,0.0,0 STARLINK-3077,1 49133U 21082D   23108.31253727  .00001752  00000-0  15458-3 0  9998,2 49133  70.0001  77.9612 0003007 265.8434  94.2382 14.98325710 87748,6950.206,96.107,574.161,569.981,0.0
49133.0,STARLINK-3077,PAYLOAD,2023-04-18 15:30:43,14.98321406,0.0002959,69.9998,77.1177,262.7793,97.3029,0.00021705,2.497e-05,0.0,0 STARLINK-3077,1 49133U 21082D   23108.64633954  .00002497  00000-0  21705-3 0  9997,2 49133  69.9998  77.1177 0002959 262.7793  97.3029 14.98321406 87792,6950.219,96.108,574.141,570.028,0.0
49133.0,STARLINK-3077,PAYLOAD,2023-04-19 07:32:03,14.98333539,0.0003045,69.9997,75.4343,264.1444,95.9368,0.00010526,1.163e-05,0.0,0 STARLINK-3077,1 49133U 21082D   23109.31393468  .00001163  00000-0  10526-3 0  9993,2 49133  69.9997  75.4343 0003045 264.1444  95.9368 14.98333539 87894,6950.182,96.107,574.163,569.931,0.0
49133.0,STARLINK-3077,PAYLOAD,2023-04-19 15:32:44,14.98318458,0.0002648,70.0008,74.5934,273.4563,86.6293,0.00032336,3.766e-05,0.0,0 STARLINK-3077,1 49133U 21082D   23109.64774201  .00003766  00000-0  32336-3 0  9991,2 49133  70.0008  74.5934 0002648 273.4563  86.6293 14.98318458 87942,6950.229,96.108,573.934,570.253,0.0
49133.0,STARLINK-3077,PAYLOAD,2023-04-20 07:34:05,14.98328008,0.0002787,70.0004,72.9105,265.0861,94.998,0.00012471,1.395e-05,0.0,0 STARLINK-3077,1 49133U 21082D   23110.31533775  .00001395  00000-0  12471-3 0  9990,2 49133  70.0004  72.9105 0002787 265.0861  94.9980 14.98328008 88041,6950.199,96.107,574.001,570.127,0.0
49133.0,STARLINK-3077,PAYLOAD,2023-04-21 05:59:58,14.98326188,0.0002706,70.0007,70.5548,262.1942,97.891,2.7963e-05,2.41e-06,0.0,0 STARLINK-3077,1 49133U 21082D   23111.24998156  .00000241  00000-0  27963-4 0  9993,2 49133  70.0007  70.5548 0002706 262.1942  97.8910 14.98326188 88185,6950.205,96.107,573.95,570.189,0.0
49133.0,STARLINK-3077,PAYLOAD,2023-04-21 07:36:06,14.98327259,0.0002908,70.0006,70.3856,270.0861,89.9965,4.9956e-05,5.03e-06,0.0,0 STARLINK-3077,1 49133U 21082D   23111.31674064  .00000503  00000-0  49956-4 0  9997,2 49133  70.0006  70.3856 0002908 270.0861  89.9965 14.98327259 88199,6950.201,96.107,574.087,570.045,0.0
49133.0,STARLINK-3077,PAYLOAD,2023-04-22 07:38:06,14.98339554,0.0002788,70.0006,67.8609,269.855,90.229,0.00012773,1.432e-05,0.0,0 STARLINK-3077,1 49133U 21082D   23112.31812929  .00001432  00000-0  12773-3 0  9990,2 49133  70.0006  67.8609 0002788 269.8550  90.2290 14.98339554 88347,6950.163,96.106,573.966,570.091,0.0
49133.0,STARLINK-3077,PAYLOAD,2023-04-23 06:03:59,14.98332901,0.0003205,70.0004,65.5057,266.3103,93.769,9.2402e-05,1.01e-05,0.0,0 STARLINK-3077,1 49133U 21082D   23113.25277312  .00001010  00000-0  92402-4 0  9995,2 49133  70.0004  65.5057 0003205 266.3103  93.7690 14.98332901 88484,6950.184,96.107,574.276,569.821,0.0
49133.0,STARLINK-3077,PAYLOAD,2023-04-23 22:05:20,14.98336497,0.000305,70.0002,63.822,262.3406,97.7407,-3.0437e-05,-4.56e-06,0.0,0 STARLINK-3077,1 49133U 21082D   23113.92037243 -.00000456  00000-0 -30437-4 0  9991,2 49133  70.0002  63.8220 0003050 262.3406  97.7407 14.98336497 88580,6950.173,96.107,574.158,569.918,0.0
49133.0,STARLINK-3077,PAYLOAD,2023-04-24 07:42:07,14.98354245,0.0002945,70.0,62.8113,265.0753,95.007,0.00016063,1.825e-05,0.0,0 STARLINK-3077,1 49133U 21082D   23114.32091485  .00001825  00000-0  16063-3 0  9991,2 49133  70.0000  62.8113 0002945 265.0753  95.0070 14.98354245 88640,6950.118,96.105,574.03,569.936,0.0
49133.0,STARLINK-3077,PAYLOAD,2023-04-25 02:55:44,14.98338722,0.0002834,70.0005,60.7897,269.918,90.1654,7.9529e-05,8.56e-06,0.0,0 STARLINK-3077,1 49133U 21082D   23115.12204157  .00000856  00000-0  79529-4 0  9992,2 49133  70.0005  60.7897 0002834 269.9180  90.1654 14.98338722 88764,6950.166,96.106,574.001,570.061,0.0
49133.0,STARLINK-3077,PAYLOAD,2023-04-25 06:08:00,14.98337975,0.0002998,70.0005,60.4557,268.2921,91.7895,5.6363e-05,5.8e-06,0.0,0 STARLINK-3077,1 49133U 21082D   23115.25556164  .00000580  00000-0  56363-4 0  9999,2 49133  70.0005  60.4557 0002998 268.2921  91.7895 14.98337975 88785,6950.168,96.106,574.117,569.95,0.0
49133.0,STARLINK-3077,PAYLOAD,2023-04-26 06:10:03,14.98312484,0.0003106,70.0008,57.9301,267.2291,92.8513,-0.00018542,-2.304e-05,0.0,0 STARLINK-3077,1 49133U 21082D   23116.25698947 -.00002304  00000-0 -18542-3 0  9990,2 49133  70.0008  57.9301 0003106 267.2291  92.8513 14.98312484 88931,6950.247,96.108,574.271,569.953,0.0
49133.0,STARLINK-3077,PAYLOAD,2023-04-27 04:35:56,14.98324122,0.0003093,70.0007,55.5738,270.3543,89.7262,-4.8027e-05,-6.66e-06,0.0,0 STARLINK-3077,1 49133U 21082D   23117.19162607 -.00000666  00000-0 -48027-4 0  9994,2 49133  70.0007  55.5738 0003093 270.3543  89.7262 14.98324122 89072,6950.211,96.107,574.226,569.926,0.0
49133.0,STARLINK-3077,PAYLOAD,2023-04-27 06:12:04,14.9832739,0.0003004,70.0008,55.4067,265.9336,94.148,-6.8576e-06,-1.75e-06,0.0,0 STARLINK-3077,1 49133U 21082D   23117.25838379 -.00000175  00000-0 -68576-5 0  9994,2 49133  70.0008  55.4067 0003004 265.9336  94.1480 14.98327390 89082,6950.201,96.107,574.154,569.978,0.0
49133.0,STARLINK-3077,PAYLOAD,2023-04-28 06:14:04,14.98334484,0.0003087,70.0008,52.8807,268.4916,91.589,0.00041855,4.905e-05,0.0,0 STARLINK-3077,1 49133U 21082D   23118.25977278  .00004905  00000-0  41855-3 0  9999,2 49133  70.0008  52.8807 0003087 268.4916  91.5890 14.98334484 89233,6950.179,96.107,574.19,569.899,0.0
49133.0,STARLINK-3077,PAYLOAD,2023-04-28 12:38:36,14.98363378,0.0002752,70.0024,52.206,279.9939,80.0909,-0.00033701,-4.115e-05,0.0,0 STARLINK-3077,1 49133U 21082D   23118.52680895 -.00004115  00000-0 -33701-3 0  9991,2 49133  70.0024  52.2060 0002752 279.9939  80.0909 14.98363378 89278,6950.09,96.105,573.867,570.042,0.0
49133.0,STARLINK-3077,PAYLOAD,2023-04-28 19:03:09,14.98339979,0.0003044,70.0001,51.5349,266.9344,93.1467,4.2965e-05,4.2e-06,0.0,0 STARLINK-3077,1 49133U 21082D   23118.79386001  .00000420  00000-0  42965-4 0  9998,2 49133  70.0001  51.5349 0003044 266.9344  93.1467 14.98339979 89315,6950.162,96.106,574.143,569.911,0.0
49133.0,STARLINK-3077,PAYLOAD,2023-04-29 04:39:57,14.9833784,0.0002867,70.0021,50.5243,271.1764,88.9067,8.9955e-05,9.81e-06,0.0,0 STARLINK-3077,1 49133U 21082D   23119.19441770  .00000981  00000-0  89955-4 0  9990,2 49133  70.0021  50.5243 0002867 271.1764  88.9067 14.98337840 89374,6950.169,96.106,574.026,570.041,0.0
49133.0,STARLINK-3077,PAYLOAD,2023-04-29 20:41:18,14.98340419,0.0002807,70.0018,48.8425,262.4436,97.6404,-7.7927e-05,-1.023e-05,0.0,0 STARLINK-3077,1 49133U 21082D   23119.86201555 -.00001023  00000-0 -77927-4 0  9995,2 49133  70.0018  48.8425 0002807 262.4436  97.6404 14.98340419 89474,6950.161,96.106,573.977,570.075,0.0
